[Satellite]
VERSION=1.1
NAME=ZHUHAI-1 03D
NICKNAME=ZHUHAI-1 03D
TLE1=1 44538U 19060E   19279.43789941  .00001145  00000-0  54484-4 0  9993
TLE2=2 44538  97.4018  29.7512 0014836 219.5996 206.0619 15.21099865  2613
STATUS=0
